{"type":"FeatureCollection","crs":{"type":"name","properties":{"name":"EPSG:5514"}},"features":[{"type":"Feature","id":1,"geometry":{"type":"Point","coordinates":[-744924.34099999815,-1040964.7740000002]},"properties":{"OBJECTID":1,"ID":501,"Y":-744924.34100000001,"X":-1040964.774,"Z":220.352,"typ":"hreb"}},{"type":"Feature","id":2,"geometry":{"type":"Point","coordinates":[-744947.07400000095,-1040966.4840000011]},"properties":{"OBJECTID":2,"ID":502,"Y":-744947.07400000002,"X":-1040966.4840000001,"Z":221.46100000000001,"typ":"hreb"}},{"type":"Feature","id":3,"geometry":{"type":"Point","coordinates":[-744969.23800000176,-1040957.6469999999]},"properties":{"OBJECTID":3,"ID":503,"Y":-744969.23800000001,"X":-1040957.647,"Z":222.649,"typ":"hreb"}},{"type":"Feature","id":4,"geometry":{"type":"Point","coordinates":[-744964.65300000086,-1040936.2740000002]},"properties":{"OBJECTID":4,"ID":504,"Y":-744964.65300000005,"X":-1040936.274,"Z":222.47200000000001,"typ":"hreb"}},{"type":"Feature","id":5,"geometry":{"type":"Point","coordinates":[-744945.90700000152,-1040924.9189999998]},"properties":{"OBJECTID":5,"ID":505,"Y":-744945.90700000001,"X":-1040924.919,"Z":221.637,"typ":"hreb"}},{"type":"Feature","id":6,"geometry":{"type":"Point","coordinates":[-744900.12000000104,-1040942.4609999992]},"properties":{"OBJECTID":6,"ID":506,"Y":-744900.12,"X":-1040942.461,"Z":219.30799999999999,"typ":"hreb"}},{"type":"Feature","id":7,"geometry":{"type":"Point","coordinates":[-744891.47800000012,-1040935.568]},"properties":{"OBJECTID":7,"ID":507,"Y":-744891.478,"X":-1040935.568,"Z":218.95099999999999,"typ":"hreb"}},{"type":"Feature","id":8,"geometry":{"type":"Point","coordinates":[-744940.58100000024,-1040910.9699999988]},"properties":{"OBJECTID":8,"ID":508,"Y":-744940.58100000001,"X":-1040910.97,"Z":221.376,"typ":"hreb"}},{"type":"Feature","id":9,"geometry":{"type":"Point","coordinates":[-744839.93899999931,-1040889.0130000003]},"properties":{"OBJECTID":9,"ID":510,"Y":-744839.93900000001,"X":-1040889.013,"Z":217.45699999999999,"typ":"hreb"}},{"type":"Feature","id":10,"geometry":{"type":"Point","coordinates":[-744875.59400000051,-1040921.1460000016]},"properties":{"OBJECTID":10,"ID":511,"Y":-744875.59400000004,"X":-1040921.1459999999,"Z":218.31999999999999,"typ":"hreb"}},{"type":"Feature","id":11,"geometry":{"type":"Point","coordinates":[-744841.6409999989,-1040888.1020000018]},"properties":{"OBJECTID":11,"ID":512,"Y":-744841.64099999995,"X":-1040888.102,"Z":217.47999999999999,"typ":"hreb"}},{"type":"Feature","id":12,"geometry":{"type":"Point","coordinates":[-744814.16699999943,-1040873.5769999996]},"properties":{"OBJECTID":12,"ID":513,"Y":-744814.16700000002,"X":-1040873.577,"Z":217.245,"typ":"hreb"}},{"type":"Feature","id":13,"geometry":{"type":"Point","coordinates":[-744815.17199999839,-1040876.3590000011]},"properties":{"OBJECTID":13,"ID":514,"Y":-744815.17200000002,"X":-1040876.3590000001,"Z":217.21199999999999,"typ":"hreb"}},{"type":"Feature","id":14,"geometry":{"type":"Point","coordinates":[-744815.41099999845,-1040878.688000001]},"properties":{"OBJECTID":14,"ID":515,"Y":-744815.41099999996,"X":-1040878.688,"Z":217.137,"typ":"hreb"}},{"type":"Feature","id":15,"geometry":{"type":"Point","coordinates":[-744903.09499999881,-1040939.9210000001]},"properties":{"OBJECTID":15,"ID":4101,"Y":-744903.09499999997,"X":-1040939.921,"Z":219.63,"typ":"trn_travnik"}},{"type":"Feature","id":16,"geometry":{"type":"Point","coordinates":[-744905.04300000146,-1040937.5529999994]},"properties":{"OBJECTID":16,"ID":4102,"Y":-744905.04299999995,"X":-1040937.553,"Z":219.614,"typ":"trn_travnik"}},{"type":"Feature","id":17,"geometry":{"type":"Point","coordinates":[-744905.36800000072,-1040941.7760000005]},"properties":{"OBJECTID":17,"ID":4103,"Y":-744905.36800000002,"X":-1040941.776,"Z":219.69900000000001,"typ":"trn_travnik"}},{"type":"Feature","id":18,"geometry":{"type":"Point","coordinates":[-744907.37999999896,-1040939.5610000007]},"properties":{"OBJECTID":18,"ID":4104,"Y":-744907.38,"X":-1040939.561,"Z":219.66200000000001,"typ":"trn_travnik"}},{"type":"Feature","id":19,"geometry":{"type":"Point","coordinates":[-744907.96400000155,-1040943.9820000008]},"properties":{"OBJECTID":19,"ID":4105,"Y":-744907.96400000004,"X":-1040943.982,"Z":219.70099999999999,"typ":"trn_travnik"}},{"type":"Feature","id":20,"geometry":{"type":"Point","coordinates":[-744909.86800000072,-1040941.6220000014]},"properties":{"OBJECTID":20,"ID":4106,"Y":-744909.86800000002,"X":-1040941.622,"Z":219.80699999999999,"typ":"trn_travnik"}},{"type":"Feature","id":21,"geometry":{"type":"Point","coordinates":[-744910.55200000107,-1040946.2340000011]},"properties":{"OBJECTID":21,"ID":4107,"Y":-744910.55200000003,"X":-1040946.2340000001,"Z":219.83000000000001,"typ":"trn_travnik"}},{"type":"Feature","id":22,"geometry":{"type":"Point","coordinates":[-744912.48800000176,-1040943.7230000012]},"properties":{"OBJECTID":22,"ID":4108,"Y":-744912.48800000001,"X":-1040943.723,"Z":219.874,"typ":"trn_travnik"}},{"type":"Feature","id":23,"geometry":{"type":"Point","coordinates":[-744913.06300000101,-1040948.318]},"properties":{"OBJECTID":23,"ID":4109,"Y":-744913.06299999997,"X":-1040948.318,"Z":219.94,"typ":"trn_travnik"}},{"type":"Feature","id":24,"geometry":{"type":"Point","coordinates":[-744915.10300000012,-1040945.8469999991]},"properties":{"OBJECTID":24,"ID":4110,"Y":-744915.103,"X":-1040945.847,"Z":219.97999999999999,"typ":"trn_travnik"}},{"type":"Feature","id":25,"geometry":{"type":"Point","coordinates":[-744915.36600000039,-1040950.3020000011]},"properties":{"OBJECTID":25,"ID":4111,"Y":-744915.36600000004,"X":-1040950.302,"Z":220.01499999999999,"typ":"trn_travnik"}},{"type":"Feature","id":26,"geometry":{"type":"Point","coordinates":[-744917.57899999991,-1040947.8170000017]},"properties":{"OBJECTID":26,"ID":4112,"Y":-744917.57900000003,"X":-1040947.817,"Z":220.04900000000001,"typ":"trn_travnik"}},{"type":"Feature","id":27,"geometry":{"type":"Point","coordinates":[-744858.46299999952,-1040919.6449999996]},"properties":{"OBJECTID":27,"ID":4501,"Y":-744858.46299999999,"X":-1040919.645,"Z":217.898,"typ":"hreb"}},{"type":"Feature","id":28,"geometry":{"type":"Point","coordinates":[-744855.59699999914,-1040919.0350000001]},"properties":{"OBJECTID":28,"ID":4502,"Y":-744855.59699999995,"X":-1040919.035,"Z":217.80600000000001,"typ":"hreb"}},{"type":"Feature","id":29,"geometry":{"type":"Point","coordinates":[-744852.76000000164,-1040918.5210000016]},"properties":{"OBJECTID":29,"ID":4503,"Y":-744852.76000000001,"X":-1040918.5209999999,"Z":217.72800000000001,"typ":"hreb"}},{"type":"Feature","id":30,"geometry":{"type":"Point","coordinates":[-744850.41099999845,-1040918.0430000015]},"properties":{"OBJECTID":30,"ID":4504,"Y":-744850.41099999996,"X":-1040918.0429999999,"Z":217.65600000000001,"typ":"hreb"}},{"type":"Feature","id":31,"geometry":{"type":"Point","coordinates":[-744903.67599999905,-1040953.074000001]},"properties":{"OBJECTID":31,"ID":4505,"Y":-744903.67599999998,"X":-1040953.074,"Z":219.50999999999999,"typ":"hreb"}},{"type":"Feature","id":32,"geometry":{"type":"Point","coordinates":[-744920.97399999946,-1040968.5399999991]},"properties":{"OBJECTID":32,"ID":4506,"Y":-744920.97400000005,"X":-1040968.54,"Z":220.303,"typ":"hreb"}},{"type":"Feature","id":33,"geometry":{"type":"Point","coordinates":[-744935.94799999893,-1040981.9079999998]},"properties":{"OBJECTID":33,"ID":4507,"Y":-744935.94799999997,"X":-1040981.9080000001,"Z":220.91499999999999,"typ":"hreb"}},{"type":"Feature","id":34,"geometry":{"type":"Point","coordinates":[-744859.33700000122,-1040913.5540000014]},"properties":{"OBJECTID":34,"ID":4601,"Y":-744859.33700000006,"X":-1040913.554,"Z":217.75899999999999,"typ":"hreb_maly"}},{"type":"Feature","id":35,"geometry":{"type":"Point","coordinates":[-744861.69299999997,-1040915.9420000017]},"properties":{"OBJECTID":35,"ID":4602,"Y":-744861.69299999997,"X":-1040915.942,"Z":217.95500000000001,"typ":"hreb_maly"}},{"type":"Feature","id":36,"geometry":{"type":"Point","coordinates":[-744863.65199999884,-1040917.6779999994]},"properties":{"OBJECTID":36,"ID":4603,"Y":-744863.652,"X":-1040917.678,"Z":218.02600000000001,"typ":"hreb_maly"}},{"type":"Feature","id":37,"geometry":{"type":"Point","coordinates":[-744861.51000000164,-1040907.8139999993]},"properties":{"OBJECTID":37,"ID":4604,"Y":-744861.51000000001,"X":-1040907.814,"Z":217.77199999999999,"typ":"hreb_maly"}},{"type":"Feature","id":38,"geometry":{"type":"Point","coordinates":[-744863.98600000143,-1040910.050999999]},"properties":{"OBJECTID":38,"ID":4605,"Y":-744863.98600000003,"X":-1040910.051,"Z":217.86000000000001,"typ":"hreb_maly"}},{"type":"Feature","id":39,"geometry":{"type":"Point","coordinates":[-744866.06700000167,-1040911.9160000011]},"properties":{"OBJECTID":39,"ID":4606,"Y":-744866.06700000004,"X":-1040911.916,"Z":217.92400000000001,"typ":"hreb_maly"}},{"type":"Feature","id":40,"geometry":{"type":"Point","coordinates":[-744868.81300000101,-1040914.311999999]},"properties":{"OBJECTID":40,"ID":4607,"Y":-744868.81299999997,"X":-1040914.312,"Z":218.02000000000001,"typ":"hreb_maly"}},{"type":"Feature","id":41,"geometry":{"type":"Point","coordinates":[-744885.36100000143,-1040928.7749999985]},"properties":{"OBJECTID":41,"ID":4608,"Y":-744885.36100000003,"X":-1040928.775,"Z":218.828,"typ":"hreb_maly"}},{"type":"Feature","id":42,"geometry":{"type":"Point","coordinates":[-744886.94200000167,-1040930.1030000001]},"properties":{"OBJECTID":42,"ID":4609,"Y":-744886.94200000004,"X":-1040930.103,"Z":218.89099999999999,"typ":"hreb_maly"}},{"type":"Feature","id":43,"geometry":{"type":"Point","coordinates":[-744896.49799999967,-1040938.5560000017]},"properties":{"OBJECTID":43,"ID":4610,"Y":-744896.49800000002,"X":-1040938.556,"Z":219.16,"typ":"hreb_maly"}},{"type":"Feature","id":44,"geometry":{"type":"Point","coordinates":[-744881.07499999925,-1040933.1849999987]},"properties":{"OBJECTID":44,"ID":4611,"Y":-744881.07499999995,"X":-1040933.1850000001,"Z":218.69499999999999,"typ":"hreb_maly"}},{"type":"Feature","id":45,"geometry":{"type":"Point","coordinates":[-744883.54199999943,-1040935.4809999987]},"properties":{"OBJECTID":45,"ID":4612,"Y":-744883.54200000002,"X":-1040935.481,"Z":218.78399999999999,"typ":"hreb_maly"}},{"type":"Feature","id":46,"geometry":{"type":"Point","coordinates":[-744886.57299999893,-1040938.1779999994]},"properties":{"OBJECTID":46,"ID":4613,"Y":-744886.57299999997,"X":-1040938.178,"Z":218.929,"typ":"hreb_maly"}},{"type":"Feature","id":47,"geometry":{"type":"Point","coordinates":[-744888.79899999872,-1040940.1649999991]},"properties":{"OBJECTID":47,"ID":4614,"Y":-744888.799,"X":-1040940.165,"Z":219.02500000000001,"typ":"hreb_maly"}},{"type":"Feature","id":48,"geometry":{"type":"Point","coordinates":[-744947.53099999949,-1040992.2289999984]},"properties":{"OBJECTID":48,"ID":4615,"Y":-744947.53099999996,"X":-1040992.2290000001,"Z":221.44300000000001,"typ":"hreb_maly"}},{"type":"Feature","id":49,"geometry":{"type":"Point","coordinates":[-744950.9459999986,-1040995.2010000013]},"properties":{"OBJECTID":49,"ID":4616,"Y":-744950.946,"X":-1040995.201,"Z":221.595,"typ":"hreb_maly"}},{"type":"Feature","id":50,"geometry":{"type":"Point","coordinates":[-744955.16000000015,-1040999.561999999]},"properties":{"OBJECTID":50,"ID":4617,"Y":-744955.16000000003,"X":-1040999.562,"Z":221.83699999999999,"typ":"hreb_maly"}},{"type":"Feature","id":51,"geometry":{"type":"Point","coordinates":[-744948.07299999893,-1040985.0460000001]},"properties":{"OBJECTID":51,"ID":4618,"Y":-744948.07299999997,"X":-1040985.046,"Z":221.26599999999999,"typ":"hreb_maly"}},{"type":"Feature","id":52,"geometry":{"type":"Point","coordinates":[-744950.78000000119,-1040987.5139999986]},"properties":{"OBJECTID":52,"ID":4619,"Y":-744950.78000000003,"X":-1040987.514,"Z":221.411,"typ":"hreb_maly"}},{"type":"Feature","id":53,"geometry":{"type":"Point","coordinates":[-744953.89600000158,-1040989.6799999997]},"properties":{"OBJECTID":53,"ID":4620,"Y":-744953.89599999995,"X":-1040989.6800000001,"Z":221.63800000000001,"typ":"hreb_maly"}},{"type":"Feature","id":54,"geometry":{"type":"Point","coordinates":[-744957.6799999997,-1040989.2699999996]},"properties":{"OBJECTID":54,"ID":4621,"Y":-744957.68000000005,"X":-1040989.27,"Z":221.92400000000001,"typ":"hreb_maly"}},{"type":"Feature","id":55,"geometry":{"type":"Point","coordinates":[-744830.86800000072,-1040829.8850000016]},"properties":{"OBJECTID":55,"ID":5001,"Y":-744830.86800000002,"X":-1040829.885,"Z":243.87200000000001,"typ":"stitek"}},{"type":"Feature","id":56,"geometry":{"type":"Point","coordinates":[-744823.6099999994,-1040838.050999999]},"properties":{"OBJECTID":56,"ID":5002,"Y":-744823.60999999999,"X":-1040838.051,"Z":229.488,"typ":"stitek"}},{"type":"Feature","id":57,"geometry":{"type":"Point","coordinates":[-744765.54899999872,-1040882.8420000002]},"properties":{"OBJECTID":57,"ID":5003,"Y":-744765.549,"X":-1040882.8419999999,"Z":236.042,"typ":"stitek"}},{"type":"Feature","id":58,"geometry":{"type":"Point","coordinates":[-744893.87999999896,-1040895.2989999987]},"properties":{"OBJECTID":58,"ID":5004,"Y":-744893.88,"X":-1040895.299,"Z":231.596,"typ":"stitek"}},{"type":"Feature","id":59,"geometry":{"type":"Point","coordinates":[-744841.96400000155,-1040948.4470000006]},"properties":{"OBJECTID":59,"ID":5005,"Y":-744841.96400000004,"X":-1040948.447,"Z":232.554,"typ":"stitek"}},{"type":"Feature","id":60,"geometry":{"type":"Point","coordinates":[-744994.03599999845,-1041037.4079999998]},"properties":{"OBJECTID":60,"ID":5006,"Y":-744994.03599999996,"X":-1041037.4080000001,"Z":225.36600000000001,"typ":"stitek"}},{"type":"Feature","id":61,"geometry":{"type":"Point","coordinates":[-744982.55799999833,-1040938.2419999987]},"properties":{"OBJECTID":61,"ID":5007,"Y":-744982.55799999996,"X":-1040938.242,"Z":251.083,"typ":"stitek"}},{"type":"Feature","id":62,"geometry":{"type":"Point","coordinates":[-744971.39499999955,-1040928.2600000016]},"properties":{"OBJECTID":62,"ID":5008,"Y":-744971.39500000002,"X":-1040928.26,"Z":233.321,"typ":"stitek"}},{"type":"Feature","id":63,"geometry":{"type":"Point","coordinates":[-744955.39799999818,-1040914.0329999998]},"properties":{"OBJECTID":63,"ID":5009,"Y":-744955.39800000004,"X":-1040914.0330000001,"Z":233.31299999999999,"typ":"stitek"}},{"type":"Feature","id":64,"geometry":{"type":"Point","coordinates":[-744944.125,-1040904.0480000004]},"properties":{"OBJECTID":64,"ID":5010,"Y":-744944.125,"X":-1040904.048,"Z":251.05799999999999,"typ":"stitek"}},{"type":"Feature","id":65,"geometry":{"type":"Point","coordinates":[-744905.5549999997,-1040945.8269999996]},"properties":{"OBJECTID":65,"ID":5011,"Y":-744905.55500000005,"X":-1040945.827,"Z":223.55000000000001,"typ":"stitek"}},{"type":"Feature","id":66,"geometry":{"type":"Point","coordinates":[-744925.31199999899,-1040963.675999999]},"properties":{"OBJECTID":66,"ID":5012,"Y":-744925.31200000003,"X":-1040963.676,"Z":224.37100000000001,"typ":"stitek"}},{"type":"Feature","id":67,"geometry":{"type":"Point","coordinates":[-744956.86499999836,-1040930.8189999983]},"properties":{"OBJECTID":67,"ID":8000,"Y":-744956.86499999999,"X":-1040930.819,"Z":222.149,"typ":"nivelacni_hreb"}},{"type":"Feature","id":68,"geometry":{"type":"Point","coordinates":[-744935.47100000083,-1040941.2829999998]},"properties":{"OBJECTID":68,"ID":4009,"Y":-744935.47100000002,"X":-1040941.2830000001,"Z":220.959,"typ":null}},{"type":"Feature","id":69,"geometry":{"type":"Point","coordinates":[-745003.75400000066,-1041125.4050000012]},"properties":{"OBJECTID":69,"ID":4010,"Y":-745003.75399999996,"X":-1041125.405,"Z":224.78999999999999,"typ":null}},{"type":"Feature","id":70,"geometry":{"type":"Point","coordinates":[-745000.98099999875,-1041125.629999999]},"properties":{"OBJECTID":70,"ID":4011,"Y":-745000.98100000003,"X":-1041125.63,"Z":224.745,"typ":null}},{"type":"Feature","id":71,"geometry":{"type":"Point","coordinates":[-744998.03400000185,-1041125.8330000006]},"properties":{"OBJECTID":71,"ID":4012,"Y":-744998.03399999999,"X":-1041125.833,"Z":224.63999999999999,"typ":null}},{"type":"Feature","id":72,"geometry":{"type":"Point","coordinates":[-744994.88699999824,-1041126.0960000008]},"properties":{"OBJECTID":72,"ID":4013,"Y":-744994.88699999999,"X":-1041126.096,"Z":224.57400000000001,"typ":null}},{"type":"Feature","id":73,"geometry":{"type":"Point","coordinates":[-744995.89200000092,-1041160.6829999983]},"properties":{"OBJECTID":73,"ID":4014,"Y":-744995.89199999999,"X":-1041160.683,"Z":225.76499999999999,"typ":null}},{"type":"Feature","id":74,"geometry":{"type":"Point","coordinates":[-745007.82699999958,-1041187.6779999994]},"properties":{"OBJECTID":74,"ID":4015,"Y":-745007.82700000005,"X":-1041187.678,"Z":227.08699999999999,"typ":null}},{"type":"Feature","id":75,"geometry":{"type":"Point","coordinates":[-745005.22800000012,-1041187.8630000018]},"properties":{"OBJECTID":75,"ID":4016,"Y":-745005.228,"X":-1041187.863,"Z":226.99100000000001,"typ":null}},{"type":"Feature","id":76,"geometry":{"type":"Point","coordinates":[-745002.47300000116,-1041188.0549999997]},"properties":{"OBJECTID":76,"ID":4017,"Y":-745002.473,"X":-1041188.0550000001,"Z":226.86699999999999,"typ":null}},{"type":"Feature","id":77,"geometry":{"type":"Point","coordinates":[-744998.61300000176,-1041188.3409999982]},"properties":{"OBJECTID":77,"ID":4018,"Y":-744998.61300000001,"X":-1041188.341,"Z":226.762,"typ":null}},{"type":"Feature","id":78,"geometry":{"type":"Point","coordinates":[-744658.09400000051,-1040791.3409999982]},"properties":{"OBJECTID":78,"ID":4029,"Y":-744658.09400000004,"X":-1040791.341,"Z":213.125,"typ":null}},{"type":"Feature","id":79,"geometry":{"type":"Point","coordinates":[-744598.09400000051,-1040768.6689999998]},"properties":{"OBJECTID":79,"ID":4030,"Y":-744598.09400000004,"X":-1040768.669,"Z":211.75800000000001,"typ":null}},{"type":"Feature","id":80,"geometry":{"type":"Point","coordinates":[-744600.87799999863,-1040848.2809999995]},"properties":{"OBJECTID":80,"ID":4031,"Y":-744600.87800000003,"X":-1040848.281,"Z":212.648,"typ":null}},{"type":"Feature","id":81,"geometry":{"type":"Point","coordinates":[-744619.73699999973,-1040797.0489999987]},"properties":{"OBJECTID":81,"ID":4032,"Y":-744619.73699999996,"X":-1040797.049,"Z":212.50999999999999,"typ":null}},{"type":"Feature","id":82,"geometry":{"type":"Point","coordinates":[-744624.68400000036,-1040798.2950000018]},"properties":{"OBJECTID":82,"ID":4033,"Y":-744624.68400000001,"X":-1040798.295,"Z":212.56999999999999,"typ":null}},{"type":"Feature","id":83,"geometry":{"type":"Point","coordinates":[-744627.0700000003,-1040791.4079999998]},"properties":{"OBJECTID":83,"ID":4034,"Y":-744627.06999999995,"X":-1040791.4080000001,"Z":212.595,"typ":null}},{"type":"Feature","id":84,"geometry":{"type":"Point","coordinates":[-744622.15199999884,-1040790.0309999995]},"properties":{"OBJECTID":84,"ID":4035,"Y":-744622.152,"X":-1040790.031,"Z":212.50299999999999,"typ":null}},{"type":"Feature","id":85,"geometry":{"type":"Point","coordinates":[-744625.71499999985,-1040773.8900000006]},"properties":{"OBJECTID":85,"ID":4036,"Y":-744625.71499999997,"X":-1040773.89,"Z":212.45500000000001,"typ":null}},{"type":"Feature","id":86,"geometry":{"type":"Point","coordinates":[-744633.72500000149,-1040776.379999999]},"properties":{"OBJECTID":86,"ID":4037,"Y":-744633.72499999998,"X":-1040776.38,"Z":212.57400000000001,"typ":null}},{"type":"Feature","id":87,"geometry":{"type":"Point","coordinates":[-744635.51999999955,-1040771.6900000013]},"properties":{"OBJECTID":87,"ID":4038,"Y":-744635.52000000002,"X":-1040771.6899999999,"Z":212.56200000000001,"typ":null}},{"type":"Feature","id":88,"geometry":{"type":"Point","coordinates":[-744628.11100000143,-1040768.0179999992]},"properties":{"OBJECTID":88,"ID":4039,"Y":-744628.11100000003,"X":-1040768.018,"Z":212.43799999999999,"typ":null}},{"type":"Feature","id":89,"geometry":{"type":"Point","coordinates":[-744639.01999999955,-1040746.5789999999]},"properties":{"OBJECTID":89,"ID":4040,"Y":-744639.02000000002,"X":-1040746.579,"Z":212.30600000000001,"typ":null}},{"type":"Feature","id":90,"geometry":{"type":"Point","coordinates":[-744664.32600000128,-1040784.5340000018]},"properties":{"OBJECTID":90,"ID":4041,"Y":-744664.326,"X":-1040784.534,"Z":null,"typ":null}},{"type":"Feature","id":91,"geometry":{"type":"Point","coordinates":[-744670.37200000137,-1040777.7380000018]},"properties":{"OBJECTID":91,"ID":4042,"Y":-744670.37199999997,"X":-1040777.738,"Z":null,"typ":null}},{"type":"Feature","id":92,"geometry":{"type":"Point","coordinates":[-744677.41499999911,-1040770.0599999987]},"properties":{"OBJECTID":92,"ID":4043,"Y":-744677.41500000004,"X":-1040770.0600000001,"Z":null,"typ":null}},{"type":"Feature","id":93,"geometry":{"type":"Point","coordinates":[-744597.09699999914,-1040753.0320000015]},"properties":{"OBJECTID":93,"ID":4044,"Y":-744597.09699999995,"X":-1040753.032,"Z":null,"typ":null}},{"type":"Feature","id":94,"geometry":{"type":"Point","coordinates":[-744596.81100000069,-1040747.8229999989]},"properties":{"OBJECTID":94,"ID":4045,"Y":-744596.81099999999,"X":-1040747.823,"Z":null,"typ":null}},{"type":"Feature","id":95,"geometry":{"type":"Point","coordinates":[-744596.48099999875,-1040744.8429999985]},"properties":{"OBJECTID":95,"ID":4046,"Y":-744596.48100000003,"X":-1040744.843,"Z":null,"typ":null}}]}