{"type":"FeatureCollection","features":[{"type":"Feature","id":1,"geometry":{"type":"Point","coordinates":[14.388074397000025,50.103117294000072]},"properties":{"OBJECTID":1,"ID":501,"Y":-744924.34100000001,"X":-1040964.774,"Z":220.352,"B":50.103117294,"L":14.388074397,"H":265.267,"typ":"hřeb"}},{"type":"Feature","id":2,"geometry":{"type":"Point","coordinates":[14.387762868000038,50.103074109000033]},"properties":{"OBJECTID":2,"ID":502,"Y":-744947.07400000002,"X":-1040966.4840000001,"Z":221.46100000000001,"B":50.103074108999998,"L":14.387762867999999,"H":266.37700000000001,"typ":"hřeb"}},{"type":"Feature","id":3,"geometry":{"type":"Point","coordinates":[14.387439054000026,50.103125562000059]},"properties":{"OBJECTID":3,"ID":503,"Y":-744969.23800000001,"X":-1040957.647,"Z":222.649,"B":50.103125562000002,"L":14.387439054,"H":267.565,"typ":"hřeb"}},{"type":"Feature","id":4,"geometry":{"type":"Point","coordinates":[14.387461682000037,50.103321563000065]},"properties":{"OBJECTID":4,"ID":504,"Y":-744964.65300000005,"X":-1040936.274,"Z":222.47200000000001,"B":50.103321563000002,"L":14.387461682,"H":267.38799999999998,"typ":"hřeb"}},{"type":"Feature","id":5,"geometry":{"type":"Point","coordinates":[14.387699562000023,50.103445751000038]},"properties":{"OBJECTID":5,"ID":505,"Y":-744945.90700000001,"X":-1040924.919,"Z":221.637,"B":50.103445751000002,"L":14.387699562,"H":266.55200000000002,"typ":"hřeb"}},{"type":"Feature","id":6,"geometry":{"type":"Point","coordinates":[14.388367145000075,50.103345813000033]},"properties":{"OBJECTID":6,"ID":506,"Y":-744900.12,"X":-1040942.461,"Z":219.30799999999999,"B":50.103345812999997,"L":14.388367145,"H":264.22199999999998,"typ":"hřeb"}},{"type":"Feature","id":7,"geometry":{"type":"Point","coordinates":[14.38847363900004,50.103417833000037]},"properties":{"OBJECTID":7,"ID":507,"Y":-744891.478,"X":-1040935.568,"Z":218.95099999999999,"B":50.103417833000002,"L":14.388473639000001,"H":263.86500000000001,"typ":"hřeb"}},{"type":"Feature","id":8,"geometry":{"type":"Point","coordinates":[14.387746646000039,50.103576539000073]},"properties":{"OBJECTID":8,"ID":508,"Y":-744940.58100000001,"X":-1040910.97,"Z":221.376,"B":50.103576539000002,"L":14.387746646,"H":266.291,"typ":"hřeb"}},{"type":"Feature","id":9,"geometry":{"type":"Point","coordinates":[14.389098345000036,50.103895857000055]},"properties":{"OBJECTID":9,"ID":510,"Y":-744839.93900000001,"X":-1040889.013,"Z":217.45699999999999,"B":50.103895856999998,"L":14.389098345000001,"H":262.36900000000003,"typ":"hřeb"}},{"type":"Feature","id":10,"geometry":{"type":"Point","coordinates":[14.388666027000056,50.10356581700006]},"properties":{"OBJECTID":10,"ID":511,"Y":-744875.59400000004,"X":-1040921.1459999999,"Z":218.31999999999999,"B":50.103565817000003,"L":14.388666026999999,"H":263.233,"typ":"hřeb"}},{"type":"Feature","id":11,"geometry":{"type":"Point","coordinates":[14.389073034000035,50.103901878000045]},"properties":{"OBJECTID":11,"ID":512,"Y":-744841.64099999995,"X":-1040888.102,"Z":217.47999999999999,"B":50.103901878000002,"L":14.389073034000001,"H":262.392,"typ":"hřeb"}},{"type":"Feature","id":12,"geometry":{"type":"Point","coordinates":[14.389425727000059,50.104065028000036]},"properties":{"OBJECTID":12,"ID":513,"Y":-744814.16700000002,"X":-1040873.577,"Z":217.245,"B":50.104065028000001,"L":14.389425727000001,"H":262.15600000000001,"typ":"hřeb"}},{"type":"Feature","id":13,"geometry":{"type":"Point","coordinates":[14.389417128000048,50.10403901400008]},"properties":{"OBJECTID":13,"ID":514,"Y":-744815.17200000002,"X":-1040876.3590000001,"Z":217.21199999999999,"B":50.104039014000001,"L":14.389417128,"H":262.12299999999999,"typ":"hřeb"}},{"type":"Feature","id":14,"geometry":{"type":"Point","coordinates":[14.389418270000021,50.10401797600008]},"properties":{"OBJECTID":14,"ID":515,"Y":-744815.41099999996,"X":-1040878.688,"Z":217.137,"B":50.104017976000002,"L":14.38941827,"H":262.048,"typ":"hřeb"}},{"type":"Feature","id":15,"geometry":{"type":"Point","coordinates":[14.388321092000069,50.103364778000071]},"properties":{"OBJECTID":15,"ID":4101,"Y":-744903.09499999997,"X":-1040939.921,"Z":219.63,"B":50.103364778,"L":14.388321092,"H":264.54399999999998,"typ":"trn"}},{"type":"Feature","id":16,"geometry":{"type":"Point","coordinates":[14.388289589000067,50.103383473000065]},"properties":{"OBJECTID":16,"ID":4102,"Y":-744905.04299999995,"X":-1040937.553,"Z":219.614,"B":50.103383473000001,"L":14.388289588999999,"H":264.52800000000002,"typ":"trn"}},{"type":"Feature","id":17,"geometry":{"type":"Point","coordinates":[14.388293162000025,50.10334546100006]},"properties":{"OBJECTID":17,"ID":4103,"Y":-744905.36800000002,"X":-1040941.776,"Z":219.69900000000001,"B":50.103345461000004,"L":14.388293162,"H":264.61399999999998,"typ":"trn"}},{"type":"Feature","id":18,"geometry":{"type":"Point","coordinates":[14.388261066000041,50.10336271500006]},"properties":{"OBJECTID":18,"ID":4104,"Y":-744907.38,"X":-1040939.561,"Z":219.66200000000001,"B":50.103362715000003,"L":14.388261066,"H":264.577,"typ":"trn"}},{"type":"Feature","id":19,"geometry":{"type":"Point","coordinates":[14.388261431000046,50.103322621000075]},"properties":{"OBJECTID":19,"ID":4105,"Y":-744907.96400000004,"X":-1040943.982,"Z":219.70099999999999,"B":50.103322620999997,"L":14.388261431,"H":264.61599999999999,"typ":"trn"}},{"type":"Feature","id":20,"geometry":{"type":"Point","coordinates":[14.388230553000028,50.103341299000078]},"properties":{"OBJECTID":20,"ID":4106,"Y":-744909.86800000002,"X":-1040941.622,"Z":219.80699999999999,"B":50.103341299,"L":14.388230553,"H":264.72199999999998,"typ":"trn"}},{"type":"Feature","id":21,"geometry":{"type":"Point","coordinates":[14.388229898000077,50.103299380000067]},"properties":{"OBJECTID":21,"ID":4107,"Y":-744910.55200000003,"X":-1040946.2340000001,"Z":219.83000000000001,"B":50.103299380000003,"L":14.388229898000001,"H":264.745,"typ":"trn"}},{"type":"Feature","id":22,"geometry":{"type":"Point","coordinates":[14.388198289000059,50.103319364000072]},"properties":{"OBJECTID":22,"ID":4108,"Y":-744912.48800000001,"X":-1040943.723,"Z":219.874,"B":50.103319364000001,"L":14.388198289,"H":264.78899999999999,"typ":"trn"}},{"type":"Feature","id":23,"geometry":{"type":"Point","coordinates":[14.388199111000063,50.103277731000048]},"properties":{"OBJECTID":23,"ID":4109,"Y":-744913.06299999997,"X":-1040948.318,"Z":219.94,"B":50.103277730999999,"L":14.388199111,"H":264.85500000000002,"typ":"trn"}},{"type":"Feature","id":24,"geometry":{"type":"Point","coordinates":[14.388166137000042,50.103297231000056]},"properties":{"OBJECTID":24,"ID":4110,"Y":-744915.103,"X":-1040945.847,"Z":219.97999999999999,"B":50.103297230999999,"L":14.388166137000001,"H":264.89499999999998,"typ":"trn"}},{"type":"Feature","id":25,"geometry":{"type":"Point","coordinates":[14.388171012000043,50.103257228000075]},"properties":{"OBJECTID":25,"ID":4111,"Y":-744915.36600000004,"X":-1040950.302,"Z":220.01499999999999,"B":50.103257227999997,"L":14.388171012000001,"H":264.93000000000001,"typ":"trn"}},{"type":"Feature","id":26,"geometry":{"type":"Point","coordinates":[14.388135617000046,50.103276640000047]},"properties":{"OBJECTID":26,"ID":4112,"Y":-744917.57900000003,"X":-1040947.817,"Z":220.04900000000001,"B":50.103276639999997,"L":14.388135617,"H":264.964,"typ":"trn"}},{"type":"Feature","id":27,"geometry":{"type":"Point","coordinates":[14.388900384000067,50.103600250000056]},"properties":{"OBJECTID":27,"ID":4501,"Y":-744858.46299999999,"X":-1040919.645,"Z":217.898,"B":50.10360025,"L":14.388900383999999,"H":262.81099999999998,"typ":"hřeb"}},{"type":"Feature","id":28,"geometry":{"type":"Point","coordinates":[14.388938906000021,50.103609207000034]},"properties":{"OBJECTID":28,"ID":4502,"Y":-744855.59699999995,"X":-1040919.035,"Z":217.80600000000001,"B":50.103609206999998,"L":14.388938906,"H":262.71899999999999,"typ":"hřeb"}},{"type":"Feature","id":29,"geometry":{"type":"Point","coordinates":[14.388977210000064,50.103617273000054]},"properties":{"OBJECTID":29,"ID":4503,"Y":-744852.76000000001,"X":-1040918.5209999999,"Z":217.72800000000001,"B":50.103617272999998,"L":14.38897721,"H":262.64100000000002,"typ":"hřeb"}},{"type":"Feature","id":30,"geometry":{"type":"Point","coordinates":[14.38900882400003,50.103624419000028]},"properties":{"OBJECTID":30,"ID":4504,"Y":-744850.41099999996,"X":-1040918.0429999999,"Z":217.65600000000001,"B":50.103624418999999,"L":14.389008823999999,"H":262.56900000000002,"typ":"hřeb"}},{"type":"Feature","id":31,"geometry":{"type":"Point","coordinates":[14.388338191000059,50.103246914000067]},"properties":{"OBJECTID":31,"ID":4505,"Y":-744903.67599999998,"X":-1040953.074,"Z":219.50999999999999,"B":50.103246914000003,"L":14.388338191000001,"H":264.42500000000001,"typ":"hřeb"}},{"type":"Feature","id":32,"geometry":{"type":"Point","coordinates":[14.388128222000034,50.103087892000076]},"properties":{"OBJECTID":32,"ID":4506,"Y":-744920.97400000005,"X":-1040968.54,"Z":220.303,"B":50.103087891999998,"L":14.388128222000001,"H":265.21800000000002,"typ":"hřeb"}},{"type":"Feature","id":33,"geometry":{"type":"Point","coordinates":[14.387946424000063,50.102950414000077]},"properties":{"OBJECTID":33,"ID":4507,"Y":-744935.94799999997,"X":-1040981.9080000001,"Z":220.91499999999999,"B":50.102950413999999,"L":14.387946424000001,"H":265.83100000000002,"typ":"hřeb"}},{"type":"Feature","id":34,"geometry":{"type":"Point","coordinates":[14.388876637000067,50.103653426000051]},"properties":{"OBJECTID":34,"ID":4601,"Y":-744859.33700000006,"X":-1040913.554,"Z":217.75899999999999,"B":50.103653426000001,"L":14.388876636999999,"H":262.67200000000003,"typ":"malý hřeb"}},{"type":"Feature","id":35,"geometry":{"type":"Point","coordinates":[14.388848577000033,50.103629260000048]},"properties":{"OBJECTID":35,"ID":4602,"Y":-744861.69299999997,"X":-1040915.942,"Z":217.95500000000001,"B":50.103629259999998,"L":14.388848576999999,"H":262.86799999999999,"typ":"malý hřeb"}},{"type":"Feature","id":36,"geometry":{"type":"Point","coordinates":[14.388824768000063,50.103611389000037]},"properties":{"OBJECTID":36,"ID":4603,"Y":-744863.652,"X":-1040917.678,"Z":218.02600000000001,"B":50.103611389000001,"L":14.388824767999999,"H":262.93900000000002,"typ":"malý hřeb"}},{"type":"Feature","id":37,"geometry":{"type":"Point","coordinates":[14.388835573000051,50.103701879000027]},"properties":{"OBJECTID":37,"ID":4604,"Y":-744861.51000000001,"X":-1040907.814,"Z":217.77199999999999,"B":50.103701878999999,"L":14.388835573,"H":262.685,"typ":"malý hřeb"}},{"type":"Feature","id":38,"geometry":{"type":"Point","coordinates":[14.388805562000073,50.103678910000042]},"properties":{"OBJECTID":38,"ID":4605,"Y":-744863.98600000003,"X":-1040910.051,"Z":217.86000000000001,"B":50.103678909999999,"L":14.388805562,"H":262.77300000000002,"typ":"malý hřeb"}},{"type":"Feature","id":39,"geometry":{"type":"Point","coordinates":[14.388780310000072,50.103659740000069]},"properties":{"OBJECTID":39,"ID":4606,"Y":-744866.06700000004,"X":-1040911.916,"Z":217.92400000000001,"B":50.103659739999998,"L":14.38878031,"H":262.83699999999999,"typ":"malý hřeb"}},{"type":"Feature","id":40,"geometry":{"type":"Point","coordinates":[14.388746864000041,50.103635023000038]},"properties":{"OBJECTID":40,"ID":4607,"Y":-744868.81299999997,"X":-1040914.312,"Z":218.02000000000001,"B":50.103635023000002,"L":14.388746864,"H":262.93299999999999,"typ":"malý hřeb"}},{"type":"Feature","id":41,"geometry":{"type":"Point","coordinates":[14.388545360000023,50.103485858000056]},"properties":{"OBJECTID":41,"ID":4608,"Y":-744885.36100000003,"X":-1040928.775,"Z":218.828,"B":50.103485857999999,"L":14.38854536,"H":263.74200000000002,"typ":"malý hřeb"}},{"type":"Feature","id":42,"geometry":{"type":"Point","coordinates":[14.388526005000074,50.103472086000068]},"properties":{"OBJECTID":42,"ID":4609,"Y":-744886.94200000004,"X":-1040930.103,"Z":218.89099999999999,"B":50.103472085999996,"L":14.388526004999999,"H":263.80500000000001,"typ":"malý hřeb"}},{"type":"Feature","id":43,"geometry":{"type":"Point","coordinates":[14.388409836000051,50.103385047000074]},"properties":{"OBJECTID":43,"ID":4610,"Y":-744896.49800000002,"X":-1040938.556,"Z":219.16,"B":50.103385047000003,"L":14.388409835999999,"H":264.07400000000001,"typ":"malý hřeb"}},{"type":"Feature","id":44,"geometry":{"type":"Point","coordinates":[14.388613142000054,50.103451850000056]},"properties":{"OBJECTID":44,"ID":4611,"Y":-744881.07499999995,"X":-1040933.1850000001,"Z":218.69499999999999,"B":50.103451849999999,"L":14.388613142000001,"H":263.60899999999998,"typ":"malý hřeb"}},{"type":"Feature","id":45,"geometry":{"type":"Point","coordinates":[14.38858336900006,50.10342836600006]},"properties":{"OBJECTID":45,"ID":4612,"Y":-744883.54200000002,"X":-1040935.481,"Z":218.78399999999999,"B":50.103428366000003,"L":14.388583368999999,"H":263.69799999999998,"typ":"malý hřeb"}},{"type":"Feature","id":46,"geometry":{"type":"Point","coordinates":[14.388546552000037,50.10340061800008]},"properties":{"OBJECTID":46,"ID":4613,"Y":-744886.57299999997,"X":-1040938.178,"Z":218.929,"B":50.103400618000002,"L":14.388546551999999,"H":263.84300000000002,"typ":"malý hřeb"}},{"type":"Feature","id":47,"geometry":{"type":"Point","coordinates":[14.388519526000039,50.10338018300007]},"properties":{"OBJECTID":47,"ID":4614,"Y":-744888.799,"X":-1040940.165,"Z":219.02500000000001,"B":50.103380182999999,"L":14.388519526,"H":263.93900000000002,"typ":"malý hřeb"}},{"type":"Feature","id":48,"geometry":{"type":"Point","coordinates":[14.387805759000059,50.102844245000028]},"properties":{"OBJECTID":48,"ID":4615,"Y":-744947.53099999996,"X":-1040992.2290000001,"Z":221.44300000000001,"B":50.102844245,"L":14.387805759000001,"H":266.35899999999998,"typ":"malý hřeb"}},{"type":"Feature","id":49,"geometry":{"type":"Point","coordinates":[14.387764152000045,50.102813575000027]},"properties":{"OBJECTID":49,"ID":4616,"Y":-744950.946,"X":-1040995.201,"Z":221.595,"B":50.102813574999999,"L":14.387764152000001,"H":266.51100000000002,"typ":"malý hřeb"}},{"type":"Feature","id":50,"geometry":{"type":"Point","coordinates":[14.387714136000056,50.102769551000051]},"properties":{"OBJECTID":50,"ID":4617,"Y":-744955.16000000003,"X":-1040999.562,"Z":221.83699999999999,"B":50.102769551000002,"L":14.387714136,"H":266.75400000000002,"typ":"malý hřeb"}},{"type":"Feature","id":51,"geometry":{"type":"Point","coordinates":[14.387784521000071,50.102907555000058]},"properties":{"OBJECTID":51,"ID":4618,"Y":-744948.07299999997,"X":-1040985.046,"Z":221.26599999999999,"B":50.102907555000002,"L":14.387784521,"H":266.18200000000002,"typ":"malý hřeb"}},{"type":"Feature","id":52,"geometry":{"type":"Point","coordinates":[14.387751754000021,50.102882245000046]},"properties":{"OBJECTID":52,"ID":4619,"Y":-744950.78000000003,"X":-1040987.514,"Z":221.411,"B":50.102882245000004,"L":14.387751754,"H":266.327,"typ":"malý hřeb"}},{"type":"Feature","id":53,"geometry":{"type":"Point","coordinates":[14.387712746000034,50.102859121000051]},"properties":{"OBJECTID":53,"ID":4620,"Y":-744953.89599999995,"X":-1040989.6800000001,"Z":221.63800000000001,"B":50.102859121000002,"L":14.387712746,"H":266.55399999999997,"typ":"malý hřeb"}},{"type":"Feature","id":54,"geometry":{"type":"Point","coordinates":[14.387659563000057,50.102858119000075]},"properties":{"OBJECTID":54,"ID":4621,"Y":-744957.68000000005,"X":-1040989.27,"Z":221.92400000000001,"B":50.102858118999997,"L":14.387659563,"H":266.84100000000001,"typ":"malý hřeb"}},{"type":"Feature","id":55,"geometry":{"type":"Point","coordinates":[14.38911093300004,50.104433648000054]},"properties":{"OBJECTID":55,"ID":5001,"Y":-744830.86800000002,"X":-1040829.885,"Z":243.87200000000001,"B":50.104433647999997,"L":14.389110933,"H":288.78300000000002,"typ":"štítek"}},{"type":"Feature","id":56,"geometry":{"type":"Point","coordinates":[14.389227051000034,50.104369839000071]},"properties":{"OBJECTID":56,"ID":5002,"Y":-744823.60999999999,"X":-1040838.051,"Z":229.488,"B":50.104369839,"L":14.389227051000001,"H":274.399,"typ":"štítek"}},{"type":"Feature","id":57,"geometry":{"type":"Point","coordinates":[14.390116700000021,50.104042284000059]},"properties":{"OBJECTID":57,"ID":5003,"Y":-744765.549,"X":-1040882.8419999999,"Z":236.042,"B":50.104042284000002,"L":14.3901167,"H":280.952,"typ":"štítek"}},{"type":"Feature","id":58,"geometry":{"type":"Point","coordinates":[14.388363395000056,50.103773545000081]},"properties":{"OBJECTID":58,"ID":5004,"Y":-744893.88,"X":-1040895.299,"Z":231.596,"B":50.103773545000003,"L":14.388363395000001,"H":276.50999999999999,"typ":"štítek"}},{"type":"Feature","id":59,"geometry":{"type":"Point","coordinates":[14.389183919000061,50.103364007000039]},"properties":{"OBJECTID":59,"ID":5005,"Y":-744841.96400000004,"X":-1040948.447,"Z":232.554,"B":50.103364007000003,"L":14.389183919000001,"H":277.46699999999998,"typ":"štítek"}},{"type":"Feature","id":60,"geometry":{"type":"Point","coordinates":[14.387248158000034,50.102384661000031]},"properties":{"OBJECTID":60,"ID":5006,"Y":-744994.03599999996,"X":-1041037.4080000001,"Z":225.36600000000001,"B":50.102384661000002,"L":14.387248158,"H":270.28399999999999,"typ":"štítek"}},{"type":"Feature","id":61,"geometry":{"type":"Point","coordinates":[14.387217505000024,50.103282019000062]},"properties":{"OBJECTID":61,"ID":5007,"Y":-744982.55799999996,"X":-1040938.242,"Z":251.083,"B":50.103282018999998,"L":14.387217505000001,"H":295.99900000000002,"typ":"štítek"}},{"type":"Feature","id":62,"geometry":{"type":"Point","coordinates":[14.387353000000076,50.103384651000056]},"properties":{"OBJECTID":62,"ID":5008,"Y":-744971.39500000002,"X":-1040928.26,"Z":233.321,"B":50.103384650999999,"L":14.387352999999999,"H":278.23700000000002,"typ":"štítek"}},{"type":"Feature","id":63,"geometry":{"type":"Point","coordinates":[14.387547322000046,50.103531039000075]},"properties":{"OBJECTID":63,"ID":5009,"Y":-744955.39800000004,"X":-1040914.0330000001,"Z":233.31299999999999,"B":50.103531039000003,"L":14.387547322,"H":278.22800000000001,"typ":"štítek"}},{"type":"Feature","id":64,"geometry":{"type":"Point","coordinates":[14.387684340000021,50.103633837000075]},"properties":{"OBJECTID":64,"ID":5010,"Y":-744944.125,"X":-1040904.048,"Z":251.05799999999999,"B":50.103633836999997,"L":14.38768434,"H":295.97300000000001,"typ":"štítek"}},{"type":"Feature","id":65,"geometry":{"type":"Point","coordinates":[14.388298318000068,50.10330915000003]},"properties":{"OBJECTID":65,"ID":5011,"Y":-744905.55500000005,"X":-1040945.827,"Z":223.55000000000001,"B":50.103309150000001,"L":14.388298318,"H":268.46499999999997,"typ":"štítek"}},{"type":"Feature","id":66,"geometry":{"type":"Point","coordinates":[14.388058852000029,50.10312588000005]},"properties":{"OBJECTID":66,"ID":5012,"Y":-744925.31200000003,"X":-1040963.676,"Z":224.37100000000001,"B":50.10312588,"L":14.388058852,"H":269.286,"typ":"štítek"}},{"type":"Feature","id":67,"geometry":{"type":"Point","coordinates":[14.387559099000043,50.103379726000071]},"properties":{"OBJECTID":67,"ID":8000,"Y":-744956.86499999999,"X":-1040930.819,"Z":222.149,"B":50.103379726,"L":14.387559099000001,"H":267.065,"typ":"nivelační hřeb"}},{"type":"Feature","id":68,"geometry":{"type":"Point","coordinates":[14.387875362000045,50.103312835000054]},"properties":{"OBJECTID":68,"ID":4009,"Y":-744935.47100000002,"X":-1040941.2830000001,"Z":220.959,"B":50.103312834999997,"L":14.387875362000001,"H":265.87400000000002,"typ":"neuvedeno"}},{"type":"Feature","id":69,"geometry":{"type":"Point","coordinates":[14.387281831000053,50.101588950000064]},"properties":{"OBJECTID":69,"ID":4010,"Y":-745003.75399999996,"X":-1041125.405,"Z":224.78999999999999,"B":50.10158895,"L":14.387281830999999,"H":269.70999999999998,"typ":"neuvedeno"}},{"type":"Feature","id":70,"geometry":{"type":"Point","coordinates":[14.387320660000057,50.101590356000031]},"properties":{"OBJECTID":70,"ID":4011,"Y":-745000.98100000003,"X":-1041125.63,"Z":224.745,"B":50.101590356000003,"L":14.38732066,"H":269.66500000000002,"typ":"neuvedeno"}},{"type":"Feature","id":71,"geometry":{"type":"Point","coordinates":[14.387361855000051,50.101592172000039]},"properties":{"OBJECTID":71,"ID":4012,"Y":-744998.03399999999,"X":-1041125.833,"Z":224.63999999999999,"B":50.101592171999997,"L":14.387361855,"H":269.56,"typ":"neuvedeno"}},{"type":"Feature","id":72,"geometry":{"type":"Point","coordinates":[14.387405935000061,50.10159370000008]},"properties":{"OBJECTID":72,"ID":4013,"Y":-744994.88699999999,"X":-1041126.096,"Z":224.57400000000001,"B":50.101593700000002,"L":14.387405935,"H":269.49400000000003,"typ":"neuvedeno"}},{"type":"Feature","id":73,"geometry":{"type":"Point","coordinates":[14.38745814400005,50.101284409000073]},"properties":{"OBJECTID":73,"ID":4014,"Y":-744995.89199999999,"X":-1041160.683,"Z":225.76499999999999,"B":50.101284409000002,"L":14.387458144,"H":270.685,"typ":"neuvedeno"}},{"type":"Feature","id":74,"geometry":{"type":"Point","coordinates":[14.387344489000043,50.101029296000036]},"properties":{"OBJECTID":74,"ID":4015,"Y":-745007.82700000005,"X":-1041187.678,"Z":227.08699999999999,"B":50.101029296,"L":14.387344489,"H":272.00799999999998,"typ":"neuvedeno"}},{"type":"Feature","id":75,"geometry":{"type":"Point","coordinates":[14.387380832000076,50.101030844000036]},"properties":{"OBJECTID":75,"ID":4016,"Y":-745005.228,"X":-1041187.863,"Z":226.99100000000001,"B":50.101030844,"L":14.387380832,"H":271.91199999999998,"typ":"neuvedeno"}},{"type":"Feature","id":76,"geometry":{"type":"Point","coordinates":[14.387419347000048,50.101032522000025]},"properties":{"OBJECTID":76,"ID":4017,"Y":-745002.473,"X":-1041188.0550000001,"Z":226.86699999999999,"B":50.101032521999997,"L":14.387419347,"H":271.78800000000001,"typ":"neuvedeno"}},{"type":"Feature","id":77,"geometry":{"type":"Point","coordinates":[14.387473343000067,50.101034722000065]},"properties":{"OBJECTID":77,"ID":4018,"Y":-744998.61300000001,"X":-1041188.341,"Z":226.762,"B":50.101034722000001,"L":14.387473343,"H":271.68299999999999,"typ":"neuvedeno"}},{"type":"Feature","id":78,"geometry":{"type":"Point","coordinates":[14.391429862000052,50.104989358000068]},"properties":{"OBJECTID":78,"ID":4029,"Y":-744658.09400000004,"X":-1040791.341,"Z":213.125,"B":50.104989357999997,"L":14.391429862000001,"H":258.03100000000001,"typ":"neuvedeno"}},{"type":"Feature","id":79,"geometry":{"type":"Point","coordinates":[14.392217433000042,50.105265045000067]},"properties":{"OBJECTID":79,"ID":4030,"Y":-744598.09400000004,"X":-1040768.669,"Z":211.75800000000001,"B":50.105265045000003,"L":14.392217433000001,"H":256.66199999999998,"typ":"neuvedeno"}},{"type":"Feature","id":80,"geometry":{"type":"Point","coordinates":[14.392331023000054,50.104552539000053]},"properties":{"OBJECTID":80,"ID":4031,"Y":-744600.87800000003,"X":-1040848.281,"Z":212.648,"B":50.104552538999997,"L":14.392331023000001,"H":257.55399999999997,"typ":"neuvedeno"}},{"type":"Feature","id":81,"geometry":{"type":"Point","coordinates":[14.391971950000027,50.10498566800004]},"properties":{"OBJECTID":81,"ID":4032,"Y":-744619.73699999996,"X":-1040797.049,"Z":212.50999999999999,"B":50.104985667999998,"L":14.39197195,"H":257.41500000000002,"typ":"neuvedeno"}},{"type":"Feature","id":82,"geometry":{"type":"Point","coordinates":[14.391905824000048,50.104968489000044]},"properties":{"OBJECTID":82,"ID":4033,"Y":-744624.68400000001,"X":-1040798.295,"Z":212.56999999999999,"B":50.104968489000001,"L":14.391905824,"H":257.47500000000002,"typ":"neuvedeno"}},{"type":"Feature","id":83,"geometry":{"type":"Point","coordinates":[14.391859620000048,50.105026897000073]},"properties":{"OBJECTID":83,"ID":4034,"Y":-744627.06999999995,"X":-1040791.4080000001,"Z":212.595,"B":50.105026897000002,"L":14.39185962,"H":257.5,"typ":"neuvedeno"}},{"type":"Feature","id":84,"geometry":{"type":"Point","coordinates":[14.391925094000044,50.105045207000046]},"properties":{"OBJECTID":84,"ID":4035,"Y":-744622.152,"X":-1040790.031,"Z":212.50299999999999,"B":50.105045207000003,"L":14.391925093999999,"H":257.40800000000002,"typ":"neuvedeno"}},{"type":"Feature","id":85,"geometry":{"type":"Point","coordinates":[14.391844905000028,50.105184591000068]},"properties":{"OBJECTID":85,"ID":4036,"Y":-744625.71499999997,"X":-1040773.89,"Z":212.45500000000001,"B":50.105184590999997,"L":14.391844904999999,"H":257.36000000000001,"typ":"neuvedeno"}},{"type":"Feature","id":86,"geometry":{"type":"Point","coordinates":[14.391738738000072,50.105152567000061]},"properties":{"OBJECTID":86,"ID":4037,"Y":-744633.72499999998,"X":-1040776.38,"Z":212.57400000000001,"B":50.105152566999998,"L":14.391738738000001,"H":257.47899999999998,"typ":"neuvedeno"}},{"type":"Feature","id":87,"geometry":{"type":"Point","coordinates":[14.391704917000027,50.10519213300006]},"properties":{"OBJECTID":87,"ID":4038,"Y":-744635.52000000002,"X":-1040771.6899999999,"Z":212.56200000000001,"B":50.105192133000003,"L":14.391704917,"H":257.46699999999998,"typ":"neuvedeno"}},{"type":"Feature","id":88,"geometry":{"type":"Point","coordinates":[14.391800502000024,50.105233946000055]},"properties":{"OBJECTID":88,"ID":4039,"Y":-744628.11100000003,"X":-1040768.018,"Z":212.43799999999999,"B":50.105233945999998,"L":14.391800502000001,"H":257.34300000000002,"typ":"neuvedeno"}},{"type":"Feature","id":89,"geometry":{"type":"Point","coordinates":[14.391608456000029,50.105411488000072]},"properties":{"OBJECTID":89,"ID":4040,"Y":-744639.02000000002,"X":-1040746.579,"Z":212.30600000000001,"B":50.105411488000001,"L":14.391608456,"H":257.21100000000001,"typ":"neuvedeno"}}]}