{"type":"FeatureCollection","features":[{"type":"Feature","id":1,"geometry":{"type":"Point","coordinates":[14.391421348000051,50.104983300000072]},"properties":{"OBJECTID":1,"ID":4029,"Y":-744658.09400000004,"X":-1040791.341,"Z":213.125,"typ":null}},{"type":"Feature","id":2,"geometry":{"type":"Point","coordinates":[14.392208919000041,50.105258986000081]},"properties":{"OBJECTID":2,"ID":4030,"Y":-744598.09400000004,"X":-1040768.669,"Z":211.75800000000001,"typ":null}},{"type":"Feature","id":3,"geometry":{"type":"Point","coordinates":[14.392322514000057,50.104546483000036]},"properties":{"OBJECTID":3,"ID":4031,"Y":-744600.87800000003,"X":-1040848.281,"Z":212.648,"typ":null}},{"type":"Feature","id":4,"geometry":{"type":"Point","coordinates":[14.391963437000072,50.104979610000044]},"properties":{"OBJECTID":4,"ID":4032,"Y":-744619.73699999996,"X":-1040797.049,"Z":212.50999999999999,"typ":null}},{"type":"Feature","id":5,"geometry":{"type":"Point","coordinates":[14.391897311000037,50.104962432000036]},"properties":{"OBJECTID":5,"ID":4033,"Y":-744624.68400000001,"X":-1040798.295,"Z":212.56999999999999,"typ":null}},{"type":"Feature","id":6,"geometry":{"type":"Point","coordinates":[14.391851107000036,50.105020839000076]},"properties":{"OBJECTID":6,"ID":4034,"Y":-744627.06999999995,"X":-1040791.4080000001,"Z":212.595,"typ":null}},{"type":"Feature","id":7,"geometry":{"type":"Point","coordinates":[14.391916581000032,50.105039149000049]},"properties":{"OBJECTID":7,"ID":4035,"Y":-744622.152,"X":-1040790.031,"Z":212.50299999999999,"typ":null}},{"type":"Feature","id":8,"geometry":{"type":"Point","coordinates":[14.391836390000037,50.105178532000082]},"properties":{"OBJECTID":8,"ID":4036,"Y":-744625.71499999997,"X":-1040773.89,"Z":212.45500000000001,"typ":null}},{"type":"Feature","id":9,"geometry":{"type":"Point","coordinates":[14.391730224000071,50.105146509000065]},"properties":{"OBJECTID":9,"ID":4037,"Y":-744633.72499999998,"X":-1040776.38,"Z":212.57400000000001,"typ":null}},{"type":"Feature","id":10,"geometry":{"type":"Point","coordinates":[14.391696402000036,50.105186075000063]},"properties":{"OBJECTID":10,"ID":4038,"Y":-744635.52000000002,"X":-1040771.6899999999,"Z":212.56200000000001,"typ":null}},{"type":"Feature","id":11,"geometry":{"type":"Point","coordinates":[14.391791987000033,50.105227887000069]},"properties":{"OBJECTID":11,"ID":4039,"Y":-744628.11100000003,"X":-1040768.018,"Z":212.43799999999999,"typ":null}},{"type":"Feature","id":12,"geometry":{"type":"Point","coordinates":[14.391599939000059,50.10540542800004]},"properties":{"OBJECTID":12,"ID":4040,"Y":-744639.02000000002,"X":-1040746.579,"Z":212.30600000000001,"typ":null}},{"type":"Feature","id":13,"geometry":{"type":"Point","coordinates":[14.39132203500003,50.10503626700006]},"properties":{"OBJECTID":13,"ID":4041,"Y":-744664.326,"X":-1040784.534,"Z":null,"typ":null}},{"type":"Feature","id":14,"geometry":{"type":"Point","coordinates":[14.391225319000057,50.105089365000026]},"properties":{"OBJECTID":14,"ID":4042,"Y":-744670.37199999997,"X":-1040777.738,"Z":null,"typ":null}},{"type":"Feature","id":15,"geometry":{"type":"Point","coordinates":[14.391113110000049,50.105149092000033]},"properties":{"OBJECTID":15,"ID":4043,"Y":-744677.41500000004,"X":-1040770.0600000001,"Z":null,"typ":null}},{"type":"Feature","id":16,"geometry":{"type":"Point","coordinates":[14.392192841000053,50.105399486000067]},"properties":{"OBJECTID":16,"ID":4044,"Y":-744597.09699999995,"X":-1040753.032,"Z":null,"typ":null}},{"type":"Feature","id":17,"geometry":{"type":"Point","coordinates":[14.392186846000072,50.105446232000077]},"properties":{"OBJECTID":17,"ID":4045,"Y":-744596.81099999999,"X":-1040747.823,"Z":null,"typ":null}},{"type":"Feature","id":18,"geometry":{"type":"Point","coordinates":[14.392185721000033,50.105473180000047]},"properties":{"OBJECTID":18,"ID":4046,"Y":-744596.48100000003,"X":-1040744.843,"Z":null,"typ":null}},{"type":"Feature","id":19,"geometry":{"type":"Point","coordinates":[14.388065888000028,50.103111248000062]},"properties":{"OBJECTID":19,"ID":501,"Y":-744924.34100000001,"X":-1040964.774,"Z":220.352,"typ":"hreb"}},{"type":"Feature","id":20,"geometry":{"type":"Point","coordinates":[14.387754358000052,50.10306806400007]},"properties":{"OBJECTID":20,"ID":502,"Y":-744947.07400000002,"X":-1040966.4840000001,"Z":221.46100000000001,"typ":"hreb"}},{"type":"Feature","id":21,"geometry":{"type":"Point","coordinates":[14.38743054300005,50.103119516000049]},"properties":{"OBJECTID":21,"ID":503,"Y":-744969.23800000001,"X":-1040957.647,"Z":222.649,"typ":"hreb"}},{"type":"Feature","id":22,"geometry":{"type":"Point","coordinates":[14.387453170000072,50.103315516000066]},"properties":{"OBJECTID":22,"ID":504,"Y":-744964.65300000005,"X":-1040936.274,"Z":222.47200000000001,"typ":"hreb"}},{"type":"Feature","id":23,"geometry":{"type":"Point","coordinates":[14.387691050000058,50.103439703000049]},"properties":{"OBJECTID":23,"ID":505,"Y":-744945.90700000001,"X":-1040924.919,"Z":221.637,"typ":"hreb"}},{"type":"Feature","id":24,"geometry":{"type":"Point","coordinates":[14.388358635000031,50.103339766000033]},"properties":{"OBJECTID":24,"ID":506,"Y":-744900.12,"X":-1040942.461,"Z":219.30799999999999,"typ":"hreb"}},{"type":"Feature","id":25,"geometry":{"type":"Point","coordinates":[14.388465130000043,50.103411786000038]},"properties":{"OBJECTID":25,"ID":507,"Y":-744891.478,"X":-1040935.568,"Z":218.95099999999999,"typ":"hreb"}},{"type":"Feature","id":26,"geometry":{"type":"Point","coordinates":[14.387738134000074,50.103570491000028]},"properties":{"OBJECTID":26,"ID":508,"Y":-744940.58100000001,"X":-1040910.97,"Z":221.376,"typ":"hreb"}},{"type":"Feature","id":27,"geometry":{"type":"Point","coordinates":[14.38908983400006,50.103889806000041]},"properties":{"OBJECTID":27,"ID":510,"Y":-744839.93900000001,"X":-1040889.013,"Z":217.45699999999999,"typ":"hreb"}},{"type":"Feature","id":28,"geometry":{"type":"Point","coordinates":[14.38865751700007,50.103559768000082]},"properties":{"OBJECTID":28,"ID":511,"Y":-744875.59400000004,"X":-1040921.1459999999,"Z":218.31999999999999,"typ":"hreb"}},{"type":"Feature","id":29,"geometry":{"type":"Point","coordinates":[14.389064524000048,50.103895828000077]},"properties":{"OBJECTID":29,"ID":512,"Y":-744841.64099999995,"X":-1040888.102,"Z":217.47999999999999,"typ":"hreb"}},{"type":"Feature","id":30,"geometry":{"type":"Point","coordinates":[14.389417216000027,50.104058977000079]},"properties":{"OBJECTID":30,"ID":513,"Y":-744814.16700000002,"X":-1040873.577,"Z":217.245,"typ":"hreb"}},{"type":"Feature","id":31,"geometry":{"type":"Point","coordinates":[14.389408617000072,50.104032963000066]},"properties":{"OBJECTID":31,"ID":514,"Y":-744815.17200000002,"X":-1040876.3590000001,"Z":217.21199999999999,"typ":"hreb"}},{"type":"Feature","id":32,"geometry":{"type":"Point","coordinates":[14.389409759000046,50.104011925000066]},"properties":{"OBJECTID":32,"ID":515,"Y":-744815.41099999996,"X":-1040878.688,"Z":217.137,"typ":"hreb"}},{"type":"Feature","id":33,"geometry":{"type":"Point","coordinates":[14.388312582000026,50.103358730000082]},"properties":{"OBJECTID":33,"ID":4101,"Y":-744903.09499999997,"X":-1040939.921,"Z":219.63,"typ":"trn_travnik"}},{"type":"Feature","id":34,"geometry":{"type":"Point","coordinates":[14.38828108000007,50.103377426000065]},"properties":{"OBJECTID":34,"ID":4102,"Y":-744905.04299999995,"X":-1040937.553,"Z":219.614,"typ":"trn_travnik"}},{"type":"Feature","id":35,"geometry":{"type":"Point","coordinates":[14.388284653000028,50.103339414000061]},"properties":{"OBJECTID":35,"ID":4103,"Y":-744905.36800000002,"X":-1040941.776,"Z":219.69900000000001,"typ":"trn_travnik"}},{"type":"Feature","id":36,"geometry":{"type":"Point","coordinates":[14.388252556000054,50.10335666800006]},"properties":{"OBJECTID":36,"ID":4104,"Y":-744907.38,"X":-1040939.561,"Z":219.66200000000001,"typ":"trn_travnik"}},{"type":"Feature","id":37,"geometry":{"type":"Point","coordinates":[14.388252922000049,50.103316573000029]},"properties":{"OBJECTID":37,"ID":4105,"Y":-744907.96400000004,"X":-1040943.982,"Z":219.70099999999999,"typ":"trn_travnik"}},{"type":"Feature","id":38,"geometry":{"type":"Point","coordinates":[14.388222044000031,50.103335252000079]},"properties":{"OBJECTID":38,"ID":4106,"Y":-744909.86800000002,"X":-1040941.622,"Z":219.80699999999999,"typ":"trn_travnik"}},{"type":"Feature","id":39,"geometry":{"type":"Point","coordinates":[14.388221389000023,50.103293333000067]},"properties":{"OBJECTID":39,"ID":4107,"Y":-744910.55200000003,"X":-1040946.2340000001,"Z":219.83000000000001,"typ":"trn_travnik"}},{"type":"Feature","id":40,"geometry":{"type":"Point","coordinates":[14.388189779000072,50.103313317000072]},"properties":{"OBJECTID":40,"ID":4108,"Y":-744912.48800000001,"X":-1040943.723,"Z":219.874,"typ":"trn_travnik"}},{"type":"Feature","id":41,"geometry":{"type":"Point","coordinates":[14.388190601000076,50.103271684000049]},"properties":{"OBJECTID":41,"ID":4109,"Y":-744913.06299999997,"X":-1040948.318,"Z":219.94,"typ":"trn_travnik"}},{"type":"Feature","id":42,"geometry":{"type":"Point","coordinates":[14.388157628000044,50.103291184000057]},"properties":{"OBJECTID":42,"ID":4110,"Y":-744915.103,"X":-1040945.847,"Z":219.97999999999999,"typ":"trn_travnik"}},{"type":"Feature","id":43,"geometry":{"type":"Point","coordinates":[14.388162503000046,50.103251182000065]},"properties":{"OBJECTID":43,"ID":4111,"Y":-744915.36600000004,"X":-1040950.302,"Z":220.01499999999999,"typ":"trn_travnik"}},{"type":"Feature","id":44,"geometry":{"type":"Point","coordinates":[14.388127107000059,50.103270593000047]},"properties":{"OBJECTID":44,"ID":4112,"Y":-744917.57900000003,"X":-1040947.817,"Z":220.04900000000001,"typ":"trn_travnik"}},{"type":"Feature","id":45,"geometry":{"type":"Point","coordinates":[14.38889187500007,50.103594201000078]},"properties":{"OBJECTID":45,"ID":4501,"Y":-744858.46299999999,"X":-1040919.645,"Z":217.898,"typ":"hreb"}},{"type":"Feature","id":46,"geometry":{"type":"Point","coordinates":[14.388930397000024,50.103603158000055]},"properties":{"OBJECTID":46,"ID":4502,"Y":-744855.59699999995,"X":-1040919.035,"Z":217.80600000000001,"typ":"hreb"}},{"type":"Feature","id":47,"geometry":{"type":"Point","coordinates":[14.388968701000067,50.103611225000066]},"properties":{"OBJECTID":47,"ID":4503,"Y":-744852.76000000001,"X":-1040918.5209999999,"Z":217.72800000000001,"typ":"hreb"}},{"type":"Feature","id":48,"geometry":{"type":"Point","coordinates":[14.389000315000033,50.103618370000049]},"properties":{"OBJECTID":48,"ID":4504,"Y":-744850.41099999996,"X":-1040918.0429999999,"Z":217.65600000000001,"typ":"hreb"}},{"type":"Feature","id":49,"geometry":{"type":"Point","coordinates":[14.388329683000052,50.103240867000068]},"properties":{"OBJECTID":49,"ID":4505,"Y":-744903.67599999998,"X":-1040953.074,"Z":219.50999999999999,"typ":"hreb"}},{"type":"Feature","id":50,"geometry":{"type":"Point","coordinates":[14.388119713000037,50.103081846000066]},"properties":{"OBJECTID":50,"ID":4506,"Y":-744920.97400000005,"X":-1040968.54,"Z":220.303,"typ":"hreb"}},{"type":"Feature","id":51,"geometry":{"type":"Point","coordinates":[14.387937916000055,50.102944369000056]},"properties":{"OBJECTID":51,"ID":4507,"Y":-744935.94799999997,"X":-1040981.9080000001,"Z":220.91499999999999,"typ":"hreb"}},{"type":"Feature","id":52,"geometry":{"type":"Point","coordinates":[14.38886812800007,50.103647377000073]},"properties":{"OBJECTID":52,"ID":4601,"Y":-744859.33700000006,"X":-1040913.554,"Z":217.75899999999999,"typ":"hreb_maly"}},{"type":"Feature","id":53,"geometry":{"type":"Point","coordinates":[14.388840067000046,50.10362321100007]},"properties":{"OBJECTID":53,"ID":4602,"Y":-744861.69299999997,"X":-1040915.942,"Z":217.95500000000001,"typ":"hreb_maly"}},{"type":"Feature","id":54,"geometry":{"type":"Point","coordinates":[14.388816258000077,50.103605340000058]},"properties":{"OBJECTID":54,"ID":4603,"Y":-744863.652,"X":-1040917.678,"Z":218.02600000000001,"typ":"hreb_maly"}},{"type":"Feature","id":55,"geometry":{"type":"Point","coordinates":[14.388827063000065,50.10369582900006]},"properties":{"OBJECTID":55,"ID":4604,"Y":-744861.51000000001,"X":-1040907.814,"Z":217.77199999999999,"typ":"hreb_maly"}},{"type":"Feature","id":56,"geometry":{"type":"Point","coordinates":[14.388797052000029,50.103672861000064]},"properties":{"OBJECTID":56,"ID":4605,"Y":-744863.98600000003,"X":-1040910.051,"Z":217.86000000000001,"typ":"hreb_maly"}},{"type":"Feature","id":57,"geometry":{"type":"Point","coordinates":[14.388771800000029,50.103653691000034]},"properties":{"OBJECTID":57,"ID":4606,"Y":-744866.06700000004,"X":-1040911.916,"Z":217.92400000000001,"typ":"hreb_maly"}},{"type":"Feature","id":58,"geometry":{"type":"Point","coordinates":[14.388738355000044,50.10362897400006]},"properties":{"OBJECTID":58,"ID":4607,"Y":-744868.81299999997,"X":-1040914.312,"Z":218.02000000000001,"typ":"hreb_maly"}},{"type":"Feature","id":59,"geometry":{"type":"Point","coordinates":[14.388536850000037,50.103479810000067]},"properties":{"OBJECTID":59,"ID":4608,"Y":-744885.36100000003,"X":-1040928.775,"Z":218.828,"typ":"hreb_maly"}},{"type":"Feature","id":60,"geometry":{"type":"Point","coordinates":[14.388517496000077,50.103466038000079]},"properties":{"OBJECTID":60,"ID":4609,"Y":-744886.94200000004,"X":-1040930.103,"Z":218.89099999999999,"typ":"hreb_maly"}},{"type":"Feature","id":61,"geometry":{"type":"Point","coordinates":[14.388401327000054,50.103379000000075]},"properties":{"OBJECTID":61,"ID":4610,"Y":-744896.49800000002,"X":-1040938.556,"Z":219.16,"typ":"hreb_maly"}},{"type":"Feature","id":62,"geometry":{"type":"Point","coordinates":[14.388604633000057,50.103445802000067]},"properties":{"OBJECTID":62,"ID":4611,"Y":-744881.07499999995,"X":-1040933.1850000001,"Z":218.69499999999999,"typ":"hreb_maly"}},{"type":"Feature","id":63,"geometry":{"type":"Point","coordinates":[14.388574860000062,50.10342231900006]},"properties":{"OBJECTID":63,"ID":4612,"Y":-744883.54200000002,"X":-1040935.481,"Z":218.78399999999999,"typ":"hreb_maly"}},{"type":"Feature","id":64,"geometry":{"type":"Point","coordinates":[14.38853804300004,50.103394571000081]},"properties":{"OBJECTID":64,"ID":4613,"Y":-744886.57299999997,"X":-1040938.178,"Z":218.929,"typ":"hreb_maly"}},{"type":"Feature","id":65,"geometry":{"type":"Point","coordinates":[14.388511017000042,50.10337413600007]},"properties":{"OBJECTID":65,"ID":4614,"Y":-744888.799,"X":-1040940.165,"Z":219.02500000000001,"typ":"hreb_maly"}},{"type":"Feature","id":66,"geometry":{"type":"Point","coordinates":[14.387797251000052,50.102838200000065]},"properties":{"OBJECTID":66,"ID":4615,"Y":-744947.53099999996,"X":-1040992.2290000001,"Z":221.44300000000001,"typ":"hreb_maly"}},{"type":"Feature","id":67,"geometry":{"type":"Point","coordinates":[14.387755644000038,50.102807530000064]},"properties":{"OBJECTID":67,"ID":4616,"Y":-744950.946,"X":-1040995.201,"Z":221.595,"typ":"hreb_maly"}},{"type":"Feature","id":68,"geometry":{"type":"Point","coordinates":[14.387705628000049,50.102763507000077]},"properties":{"OBJECTID":68,"ID":4617,"Y":-744955.16000000003,"X":-1040999.562,"Z":221.83699999999999,"typ":"hreb_maly"}},{"type":"Feature","id":69,"geometry":{"type":"Point","coordinates":[14.387776013000064,50.102901510000038]},"properties":{"OBJECTID":69,"ID":4618,"Y":-744948.07299999997,"X":-1040985.046,"Z":221.26599999999999,"typ":"hreb_maly"}},{"type":"Feature","id":70,"geometry":{"type":"Point","coordinates":[14.38774324600007,50.102876200000026]},"properties":{"OBJECTID":70,"ID":4619,"Y":-744950.78000000003,"X":-1040987.514,"Z":221.411,"typ":"hreb_maly"}},{"type":"Feature","id":71,"geometry":{"type":"Point","coordinates":[14.387704238000026,50.102853076000031]},"properties":{"OBJECTID":71,"ID":4620,"Y":-744953.89599999995,"X":-1040989.6800000001,"Z":221.63800000000001,"typ":"hreb_maly"}},{"type":"Feature","id":72,"geometry":{"type":"Point","coordinates":[14.387651055000049,50.102852075000044]},"properties":{"OBJECTID":72,"ID":4621,"Y":-744957.68000000005,"X":-1040989.27,"Z":221.92400000000001,"typ":"hreb_maly"}},{"type":"Feature","id":73,"geometry":{"type":"Point","coordinates":[14.389102416000071,50.104427592000036]},"properties":{"OBJECTID":73,"ID":5001,"Y":-744830.86800000002,"X":-1040829.885,"Z":243.87200000000001,"typ":"stitek"}},{"type":"Feature","id":74,"geometry":{"type":"Point","coordinates":[14.389218536000044,50.104363784000043]},"properties":{"OBJECTID":74,"ID":5002,"Y":-744823.60999999999,"X":-1040838.051,"Z":229.488,"typ":"stitek"}},{"type":"Feature","id":75,"geometry":{"type":"Point","coordinates":[14.390108189000046,50.104036231000066]},"properties":{"OBJECTID":75,"ID":5003,"Y":-744765.549,"X":-1040882.8419999999,"Z":236.042,"typ":"stitek"}},{"type":"Feature","id":76,"geometry":{"type":"Point","coordinates":[14.388354882000044,50.103767494000067]},"properties":{"OBJECTID":76,"ID":5004,"Y":-744893.88,"X":-1040895.299,"Z":231.596,"typ":"stitek"}},{"type":"Feature","id":77,"geometry":{"type":"Point","coordinates":[14.389175410000064,50.103357958000061]},"properties":{"OBJECTID":77,"ID":5005,"Y":-744841.96400000004,"X":-1040948.447,"Z":232.554,"typ":"stitek"}},{"type":"Feature","id":78,"geometry":{"type":"Point","coordinates":[14.387239650000026,50.102378619000035]},"properties":{"OBJECTID":78,"ID":5006,"Y":-744994.03599999996,"X":-1041037.4080000001,"Z":225.36600000000001,"typ":"stitek"}},{"type":"Feature","id":79,"geometry":{"type":"Point","coordinates":[14.387208990000033,50.103275969000038]},"properties":{"OBJECTID":79,"ID":5007,"Y":-744982.55799999996,"X":-1040938.242,"Z":251.083,"typ":"stitek"}},{"type":"Feature","id":80,"geometry":{"type":"Point","coordinates":[14.387344486000075,50.103378603000067]},"properties":{"OBJECTID":80,"ID":5008,"Y":-744971.39500000002,"X":-1040928.26,"Z":233.321,"typ":"stitek"}},{"type":"Feature","id":81,"geometry":{"type":"Point","coordinates":[14.387538808000045,50.10352498900005]},"properties":{"OBJECTID":81,"ID":5009,"Y":-744955.39800000004,"X":-1040914.0330000001,"Z":233.31299999999999,"typ":"stitek"}},{"type":"Feature","id":82,"geometry":{"type":"Point","coordinates":[14.387675823000052,50.103627785000072]},"properties":{"OBJECTID":82,"ID":5010,"Y":-744944.125,"X":-1040904.048,"Z":251.05799999999999,"typ":"stitek"}},{"type":"Feature","id":83,"geometry":{"type":"Point","coordinates":[14.388289808000025,50.10330310300003]},"properties":{"OBJECTID":83,"ID":5011,"Y":-744905.55500000005,"X":-1040945.827,"Z":223.55000000000001,"typ":"stitek"}},{"type":"Feature","id":84,"geometry":{"type":"Point","coordinates":[14.388050343000032,50.10311983400004]},"properties":{"OBJECTID":84,"ID":5012,"Y":-744925.31200000003,"X":-1040963.676,"Z":224.37100000000001,"typ":"stitek"}},{"type":"Feature","id":85,"geometry":{"type":"Point","coordinates":[14.387550587000021,50.103373679000072]},"properties":{"OBJECTID":85,"ID":8000,"Y":-744956.86499999999,"X":-1040930.819,"Z":222.149,"typ":"nivelacni_hreb"}},{"type":"Feature","id":86,"geometry":null,"properties":{"OBJECTID":86,"Shape":null,"ID":4001,"Y":-744596.51899999997,"X":-1040744.83,"Z":211.595,"typ":"hreb"}},{"type":"Feature","id":87,"geometry":{"type":"Point","coordinates":[14.392512503000034,50.105409451000071]},"properties":{"OBJECTID":87,"ID":null,"Y":null,"X":null,"Z":null,"typ":null}}]}