{"type":"FeatureCollection","crs":{"type":"name","properties":{"name":"EPSG:5514"}},"features":[{"type":"Feature","id":1,"geometry":{"type":"Polygon","coordinates":[[[-744993.03299999982,-1040939.0549999997],[-745009.58799999952,-1040955.5460000001],[-745013.07299999893,-1040957.9780000001],[-744971.19999999925,-1040984.5819999985],[-744993.98999999836,-1041037.2600000016],[-744947.58570000157,-1041059.2749000005],[-744926.22700000182,-1041015.324000001],[-744858.4123999998,-1040954.6154999994],[-744885.67430000007,-1040918.0969999991],[-744894.95850000158,-1040907.9015000015],[-744906.82999999821,-1040907.6999999993],[-744925.16000000015,-1040887.1900000013],[-744988.30000000075,-1040943.7800000012],[-744993.03299999982,-1040939.0549999997]]]},"properties":{"OBJECTID":1,"Shape_Length":516.08692745595999,"Shape_Area":12719.56363354004,"Location":"louka před budovou B FSv ČVUT"}},{"type":"Feature","id":2,"geometry":{"type":"Polygon","coordinates":[[[-744586.52499999851,-1040858.6550000012],[-744584.61699999869,-1040850.7380000018],[-744580.37900000066,-1040723.8150000013],[-744594.87999999896,-1040712.5899999999],[-744695.83999999985,-1040747.5799999982],[-744701.11699999869,-1040767.2100000009],[-744614.40199999884,-1040865.1620000005],[-744586.52499999851,-1040858.6550000012]]]},"properties":{"OBJECTID":2,"Shape_Length":440.10082061224733,"Shape_Area":11649.421506090754,"Location":"Flemmingovo náměstí"}},{"type":"Feature","id":3,"geometry":{"type":"Polygon","coordinates":[[[-745014.42599999905,-1041110.9470000006],[-745025.8900000006,-1041121.3099999987],[-745023.35000000149,-1041138.5700000003],[-745027.45960000157,-1041261.8874999993],[-744979.92639999837,-1041264.1875],[-744974.19700000063,-1041153.3797000013],[-744973.26999999955,-1041131.3599999994],[-744976.54100000113,-1041123.4250000007],[-745014.42599999905,-1041110.9470000006]]]},"properties":{"OBJECTID":3,"Shape_Length":385.33909913076519,"Shape_Area":7150.7936315089119,"Location":"park před Masarykovou kolejí ČVUT"}},{"type":"Feature","id":4,"geometry":{"type":"Polygon","coordinates":[[[-744906.82999999821,-1040907.6999999993],[-744894.95850000158,-1040907.9015000015],[-744858.4123999998,-1040954.6154999994],[-744855.71849999949,-1040959.6748999991],[-744834.89999999851,-1040939.0599999987],[-744817.26999999955,-1040924.370000001],[-744808.30000000075,-1040934.4200000018],[-744808.96999999881,-1040935.0199999996],[-744799.76810000092,-1040945.3517000005],[-744761.62700000033,-1040919.4919999987],[-744728.02699999884,-1040856.4450000003],[-744805.3599999994,-1040828.1400000006],[-744820.21999999881,-1040840.6900000013],[-744838.26999999955,-1040821.3099999987],[-744856.01999999955,-1040837.0899999999],[-744852.26999999955,-1040841.3099999987],[-744865.96999999881,-1040853.4899999984],[-744869.73000000045,-1040849.2699999996],[-744887.76999999955,-1040865.3099999987],[-744875.1099999994,-1040879.6099999994],[-744888.85000000149,-1040891.7800000012],[-744890.21000000089,-1040890.3200000003],[-744889.76000000164,-1040889.9200000018],[-744890.94999999925,-1040888.5700000003],[-744895.96999999881,-1040893.0100000016],[-744894.78000000119,-1040894.3599999994],[-744894.32999999821,-1040893.9600000009],[-744893.01000000164,-1040895.4600000009],[-744906.82999999821,-1040907.6999999993]]]},"properties":{"OBJECTID":4,"Shape_Length":552.1072102989682,"Shape_Area":13679.410076259443,"Location":"prostor před budovou C FSv ČVUT"}}]}