{"type":"FeatureCollection","features":[{"type":"Feature","id":1,"geometry":{"type":"Polygon","coordinates":[[[14.387065489000065,50.103255846000081],[14.386867772000073,50.103088607000075],[14.386824164000075,50.103062661000081],[14.387454872000035,50.102877203000048],[14.387240004000034,50.102379994000046],[14.387924675000022,50.102240979000044],[14.38813641400003,50.102658698000027],[14.388959428000021,50.103282793000062],[14.388512098000035,50.10357453000006],[14.388364040000056,50.103653922000035],[14.388199260000022,50.103641119000031],[14.387906217000022,50.103801254000075],[14.38714006500004,50.103219583000055],[14.387065489000065,50.103255846000081]]]},"properties":{"OBJECTID":1,"Location":"FSv building C","Shape_Length":0.0059547472130446087,"Shape_Area":1.5986868480648586e-06}},{"type":"Feature","id":2,"geometry":{"type":"Polygon","coordinates":[[[14.392541102000052,50.104471727000032],[14.392552395000052,50.104544586000031],[14.392368522000027,50.105680262000078],[14.392146251000042,50.105762416000061],[14.390814986000066,50.105326665000064],[14.390779429000077,50.105145339000046],[14.392167492000056,50.104379506000043],[14.392541102000052,50.104471727000032]]]},"properties":{"OBJECTID":2,"Location":"Flemming square","Shape_Length":0.0050168439504587291,"Shape_Area":1.4642460563340773e-06}}]}